StoreName,StoreType,StoreOpeningDate,Address,City,State,Country,Region,Manager Name
The Whimsy Perfection,Exclusive,30-07-1980,718 Mckay Junction Apt. 511 Kirkland  IA 74524,Andrewburgh,Idaho,French Southern Territories,North,Patricia
The Trendy Oasis,Exclusive,30-05-1984,213 Martin Plain Suite 088 Port Katrinamouth  CT 02129,Smithfort,Georgia,North Macedonia,South,Samantha
The Timeless Boutique,Exclusive,01-03-2007,1201 Caleb Wells Suite 332 North Brittanyshire  MD 28173,New Carolineshire,Michigan,Jamaica,East,Stephen
The Eclectic Finds,SMB,19-11-1975,6863 Sanders Ways North Heather  AZ 46444,East Tara,Colorado,Cuba,South,Michael
The Elegant Loft,Outlet Stores,01-05-1983,24843 Estes Fords Jessicashire  AR 72280,Port Vincentshire,Colorado,Korea,North,Carl
The Harmony Hub,Outlet Stores,19-11-1996,Unit 8359 Box 0903 DPO AE 90038,Lewisfort,New Jersey,Liechtenstein,South,Kevin
The Whimsy Cabinet,Exclusive,06-10-1974,51504 Michael Street Thompsonport  MH 24742,North Michael,Connecticut,Lao People's Democratic Republic,West,Breanna
The Shimmer Shoppe,Outlet Stores,01-09-1972,09388 Hendricks Ridge Clinechester  VA 61396,Martinside,Indiana,Colombia,West,Anna
The Timeless Vault,MBO,30-03-1979,384 Kyle Shoals East Sarahmouth  NV 42633,West Bethanyview,Alaska,Falkland Islands (Malvinas),South,Tim
The Trendy Shoppe,Outlet Stores,20-01-2014,920 Martin Lights Lake Alexis  ME 17796,North Cathychester,New Mexico,Burundi,South,James
The Radiant Cabinet,MBO,18-01-2012,55854 Meyers Coves Port Jerrymouth  ME 29624,Lake Nicholas,New Jersey,Bolivia,North,David
The Cozy Merchant,MBO,27-06-1996,Unit 5986 Box 1276 DPO AP 12696,Katieview,Delaware,Ethiopia,East,Jessica
The Shimmer Shop,MBO,16-07-2015,Unit 1416 Box 6353 DPO AP 93860,East Destiny,Delaware,Kazakhstan,West,David
The Golden Loft,MBO,12-04-2007,USNS Wood FPO AA 47194,Bishopmouth,Maine,Mexico,North,James
The Harmony Loft,Exclusive,12-09-2011,449 Cruz Plains Suite 762 East Nathan  DE 59160,New Williamfurt,Maine,French Southern Territories,South,Kevin
The Serene Oasis,SMB,12-05-2001,Unit 3926 Box 9204 DPO AP 80601,East Stacyfort,New Hampshire,Moldova,North,Steven
The Unique Reflections,MBO,13-01-1971,078 Raymond Cliffs Michellemouth  FM 67045,Jaybury,New Hampshire,Finland,East,Susan
The Radiant Merchant,Outlet Stores,24-01-1975,221 King Rapid Gonzalezmouth  WY 27842,South Brandon,Tennessee,Morocco,East,Mary
The Trendy Shoppe,SMB,22-11-1982,5645 Aaron Springs South Tyler  FM 89869,Maldonadoberg,Utah,Djibouti,South,Stephen
The Urban Boutique,Outlet Stores,21-07-2002,4117 Sandoval Isle Suite 034 Coxstad  LA 54919,Longborough,Minnesota,Sweden,North,Cynthia
The Blissful Merchant,Exclusive,17-06-1999,39536 Sara Fork New Danny  IA 04897,Port Patriciashire,New York,French Guiana,South,Rebecca
The Eclectic Cabinet,Exclusive,06-10-2008,083 Moore Creek Apt. 754 New Nicolechester  LA 21394,Weissside,South Carolina,Luxembourg,West,Rita
The Polished Reflections,MBO,17-02-2008,3826 Derek Lane Suite 562 Wilkinsonchester  HI 13572,South Meghanland,Oklahoma,Tunisia,East,Taylor
The Whimsy Enclave,Exclusive,28-02-1989,5218 Caldwell Union Apt. 399 Davidfurt  AR 46308,South Marissa,Ohio,Guinea,North,Julie
The Rustic Emporium,SMB,13-07-2008,817 Pittman Mill Apt. 575 Simonfurt  CT 27671,East Brooke,Washington,Slovenia,West,Brady
The Eclectic Haven,Exclusive,22-05-1996,4125 William Island Port Aaronchester  WY 01731,East Natasha,Missouri,Cook Islands,North,Joseph
The Classy Cabinet,SMB,26-11-1970,4577 Perkins Estate Bowershaven  WI 15593,Pattersonchester,Utah,Afghanistan,East,Kayla
The Chic Perfection,MBO,15-02-1970,848 Wilson Isle Sandrastad  CT 47389,New Heather,Ohio,Bahamas,West,Gabriel
The Dapper Corner,SMB,27-08-2020,392 Michael Trafficway Stevenfort  MP 49456,Smithland,Virginia,Iraq,East,Jacqueline
The Vintage Closet,SMB,17-08-2023,17412 Valencia Rue South Jason  ND 98117,New Stephaniefurt,Indiana,Jamaica,East,Janet
The Elegant Elegance,Outlet Stores,27-12-2015,084 May Cliff Suite 821 Sandrafurt  CA 19397,North Michael,New Jersey,Lao People's Democratic Republic,South,Latoya
The Urban Elegance,SMB,01-01-2022,527 Jones River Apt. 206 Gilbertburgh  NC 95642,Stewartville,New Jersey,Honduras,South,Tony
The Happy Corner,SMB,09-06-2010,7479 Jessica Villages South Karenside  FM 71345,West Amberland,West Virginia,Central African Republic,East,Emily
The Classy Finds,MBO,11-08-2005,2419 Jennifer Fords Apt. 605 Pageton  OK 06894,Penningtonberg,New Mexico,Wallis and Futuna,East,Michael
The Vintage Shoppe,MBO,24-01-1988,2524 Stacy Landing Dillontown  VT 33370,New Amyfurt,Utah,Switzerland,East,Julian
The Purely Treasures,Outlet Stores,09-12-2024,896 Murphy Park New Timothy  FL 73159,West Katelynstad,New Hampshire,Hungary,South,Robert
The Radiant Emporium,SMB,20-04-1981,15500 Reynolds Forges Port Christopherborough  MA 78476,Lake Amandaport,Texas,Rwanda,North,Rebecca
The Vintage Oasis,MBO,02-12-1971,4069 Perez Freeway New Joelland  PA 12527,Sydneychester,North Carolina,Cote d'Ivoire,East,Dana
The Chic Elegance,Outlet Stores,26-08-1972,16594 James Junctions Suite 089 North Andrea  NY 72527,Smithbury,Oregon,Malawi,West,Alexis
The Trendy Creations,Exclusive,11-12-2020,190 Mark Port Travisland  DC 06507,Hicksberg,Utah,French Guiana,West,Kristi
The Radiant Shoppe,Exclusive,05-07-1992,299 Christian Ford Jonesstad  HI 77995,West Alexander,Florida,Tunisia,North,Kara
The Shimmer Nook,Exclusive,09-03-1995,61448 Townsend Trail Suite 605 East James  MP 26036,Douglasstad,Kentucky,Mexico,South,Adam
The Shimmer Closet,Exclusive,03-11-2015,6309 Laura Knoll South Melissaland  IL 34783,Simsland,California,Iceland,East,Jose
The Radiant Haven,SMB,27-06-1971,297 Emily Park South Jessica  NE 81257,Campbellchester,Washington,India,North,Amber
The Modern Emporium,Exclusive,25-09-1983,2426 Mccullough Pine North Mary  VT 08034,South Nicholas,South Dakota,Greece,West,Jacob
The Stylish Marketplace,Exclusive,15-08-1989,233 Farley Dam Suite 163 Watsonbury  PA 02456,Underwoodstad,Texas,Pitcairn Islands,East,Mary
The Vintage Nook,SMB,20-07-2014,698 James Radial Quinnport  MS 37228,Port Scott,Missouri,Monaco,North,Melissa
The Urban Marvels,Outlet Stores,28-02-1982,1116 Steven Divide Esparzashire  IN 42381,Port Sethborough,Nebraska,Belize,North,Daniel
The Rustic Closet,Outlet Stores,20-08-1994,824 Bright Hills Suite 069 Lukeside  AS 48661,Port Mariaside,Connecticut,Micronesia,South,Karen
The Trendy Marketplace,Outlet Stores,22-11-1985,290 Alexandra Ville Chanfort  RI 92410,Nancyfurt,Vermont,Peru,East,Andrew
The Shimmer Essentials,Exclusive,01-11-1979,3103 Bush Locks Suite 815 West Christine  MD 17205,South Christopherport,New York,Turkmenistan,East,Tanya
The Polished Loft,MBO,28-07-1986,2559 Kelley Flats Victoriafort  NC 83549,North Beverly,Illinois,Panama,North,David
The Eclectic Enclave,Outlet Stores,28-08-1998,76727 Marilyn Rapids Suite 792 Port Francesfurt  AL 21311,Port Briantown,Wisconsin,Sri Lanka,South,Tracy
The Timeless Deals,Exclusive,10-11-2021,40539 Amy Mills South Jacobmouth  NM 31645,Brownville,Maine,Syrian Arab Republic,West,Anna
The Dapper Shoppe,Exclusive,04-04-1991,9021 Cody Fords Suite 487 New Christopher  WI 20676,Christinatown,Louisiana,Myanmar,East,Cassandra
The Unique Loft,MBO,21-04-1996,3078 Dunn Groves Davidfurt  RI 41349,Harrisshire,Michigan,Martinique,North,Carrie
The Trendy Elegance,Exclusive,21-03-1986,2435 Wallace Circle New Josephborough  AR 97270,Christophershire,Oklahoma,Slovakia (Slovak Republic),North,Joshua
The Purely Finds,SMB,08-05-2002,61626 Palmer Point Lake Jose  MD 58869,Lake Carol,Louisiana,Panama,South,Veronica
The Radiant Quest,Outlet Stores,03-08-1981,0734 Jessica Meadows West David  NE 81101,Campbellport,Maryland,Yemen,East,Theresa
The Dapper Sanctuary,SMB,20-04-2023,11428 Caroline Rue Suite 506 West Stevenfort  ME 44503,Edwardborough,Florida,Lesotho,East,Thomas
The Urban Creations,Exclusive,02-09-1989,990 Debra Fork Suite 116 West Jessicaview  GU 95197,West Curtisside,California,Trinidad and Tobago,North,Steven
The Unique Vault,Exclusive,08-09-1987,4532 Taylor Unions West Normanbury  PA 42410,Mariafort,Alabama,Guyana,South,John
The Stylish Perfection,SMB,16-06-1984,207 Jensen Dam Apt. 185 Lake James  WA 71201,Owenside,Oklahoma,Mauritius,West,Gary
The Happy Shop,Outlet Stores,08-06-2011,791 Daniel Tunnel Marksfurt  NC 19266,East Williamhaven,Louisiana,Korea,South,Deanna
The Blissful Marketplace,Outlet Stores,20-02-1981,23726 Alicia Estates Apt. 663 West Jacobchester  LA 22708,Changberg,Idaho,Comoros,North,Aaron
The Dapper Deals,Outlet Stores,01-12-2014,0776 Wilson Curve Apt. 308 West Michael  MS 89874,Brandonville,North Carolina,Fiji,North,John
The Classy Vault,MBO,08-03-2000,188 Holland Grove Apt. 818 Mckeetown  AZ 63874,Collinsburgh,Illinois,Honduras,North,Robert
The Rustic Shop,SMB,16-04-2006,470 Perez Circle Apt. 961 South Karen  HI 14075,Meyerhaven,New Hampshire,Saint Martin,North,Alexander
The Golden Loft,SMB,24-05-2022,44451 Michael Court Apt. 740 Lake Cynthia  CT 77263,Sylviaton,Idaho,Saudi Arabia,West,Craig
The Dapper Avenue,MBO,27-02-1974,USNS Wells FPO AE 94816,Lake Pamela,Hawaii,Zimbabwe,East,Ronald
The Luxe Haven,Outlet Stores,19-01-1995,2143 Natalie Dam Suite 317 Michelleview  NC 13105,Briannaview,Rhode Island,Dominican Republic,West,David
The Shimmer Emporium,SMB,03-12-2007,661 Jessica Crossroad Suite 079 South Marilynland  OK 45903,North Crystalton,Colorado,Cayman Islands,North,Robert
The Cozy Deals,Outlet Stores,17-10-1987,244 Cox Neck Suite 306 Brianchester  OR 67258,Ramoston,Wisconsin,Israel,East,Heather
The Golden Cabinet,SMB,05-03-1996,82507 Moore Ranch Lake Tanner  KY 34000,Hannahtown,North Dakota,Trinidad and Tobago,North,Breanna
The Urban Deals,MBO,30-11-1975,557 Jessica Rapid Stevefurt  AS 77062,Tamaraberg,Rhode Island,Albania,North,Joseph
The Urban Haven,MBO,28-12-2022,81186 George Port Bullockhaven  TX 56963,Powellland,Utah,Lao People's Democratic Republic,East,Laura
The Golden Shoppe,MBO,26-01-2025,33240 Tiffany Valleys New Pennystad  NE 44230,Grayside,Arizona,Palau,North,Larry
The Stylish Quest,Outlet Stores,04-01-2002,5031 Thompson Mall Lake Tinamouth  CA 18550,Port Arielland,Nevada,Uzbekistan,South,Amy
The Happy Reflections,Outlet Stores,18-07-1979,8163 Charles Views Apt. 252 Perezmouth  PW 52314,Clayburgh,Colorado,Sudan,South,Cheyenne
The Golden Marvels,Outlet Stores,10-05-2005,07924 Evans Extension Port Paula  DC 15400,Robertsbury,Iowa,Jordan,South,Preston
The Polished Emporium,Outlet Stores,20-10-1997,6491 James Street Suite 979 New Rileymouth  VA 90016,East Danielbury,Wyoming,Afghanistan,West,Jill
The Radiant Perfection,MBO,15-12-2013,USS Perry FPO AP 79810,Wagnerhaven,Indiana,Guernsey,South,Bryan
The Enchanted Hub,MBO,15-12-1994,585 Tonya Extension Suite 223 Port Leonard  UT 50775,Briannafurt,Alabama,Zambia,South,James
The Harmony Vault,MBO,19-02-1985,USNS Rodriguez FPO AA 02248,Meyersbury,Hawaii,Guadeloupe,East,Natalie
The Majestic Finds,SMB,13-02-1999,870 Clayton Courts Wattsshire  NJ 11850,North Tiffany,Wisconsin,Nepal,East,Joel
The Urban Loft,MBO,29-10-1997,52024 Lee Vista Suite 272 Port Jeanettemouth  OH 85821,Lake George,Wisconsin,Malta,East,Robert
The Happy Boutique,Outlet Stores,05-02-1977,4882 Garcia Run New Karenmouth  UT 57134,Tracyton,Alabama,French Guiana,South,Vickie
The Urban Quest,Outlet Stores,24-11-1995,24745 Lane Stream Apt. 953 North Maria  ME 70419,Murraybury,Colorado,Malta,North,Cheryl
The Trendy Vault,Exclusive,18-09-2020,Unit 9678 Box 9535 DPO AE 67383,Davisstad,South Dakota,Guinea,North,Kathleen
The Shimmer Finds,Outlet Stores,09-09-1984,013 Munoz Pine South Ann  FL 71473,Bryantbury,Mississippi,Pakistan,West,Christina
The Elegant Deals,MBO,21-09-2012,7354 Richard Row East Brookechester  KY 77437,East Baileystad,Alaska,Venezuela,North,Bradley
The Dapper Marvels,MBO,12-12-2008,6480 Dustin Points Apt. 050 Gregoryside  NH 17511,East Joshua,Mississippi,Gibraltar,North,Matthew
The Elegant Finds,Outlet Stores,07-10-1995,8574 Gibson Vista Apt. 529 Bishopberg  NM 68345,Elizabethmouth,Virginia,Montenegro,South,Aaron
The Artisan Essentials,Exclusive,04-02-1982,62632 Mary Flat Gibbston  MS 31022,Lake Shawn,Oregon,Thailand,North,Elaine
The Radiant Treasures,MBO,22-12-2006,276 Lauren Parks East Amandaburgh  VA 43057,Hernandezland,Michigan,Tokelau,North,Linda
The Purely Enclave,Outlet Stores,17-08-1988,647 Christopher Crest East Kristen  AL 86848,Marksberg,Michigan,Moldova,South,Julie
The Urban Reflections,SMB,23-12-2003,58146 Hood Motorway Suite 099 Ericport  PR 77481,New Bethchester,Montana,Cote d'Ivoire,South,Joshua
The Shimmer Loft,Outlet Stores,22-04-1988,75824 Bryan Points Suite 232 Richardsonside  MN 69613,East Jacquelineburgh,Nevada,Equatorial Guinea,South,James
The Elegant Cabinet,SMB,12-05-1989,3865 Carr Expressway Apt. 869 Karenside  HI 84921,Kevinland,Nebraska,Saudi Arabia,South,Jerry
The Stylish Marketplace,Exclusive,10-04-2004,USNV Ramirez FPO AE 85272,Tranberg,Indiana,Benin,West,Sandra
